[{"OBJECT_NAME":"PANDORA","OBJECT_ID":"2026-004AJ","EPOCH":"2026-03-09T23:33:39.015648","MEAN_MOTION":14.87872688,"ECCENTRICITY":0.0006827,"INCLINATION":97.8034,"RA_OF_ASC_NODE":69.2013,"ARG_OF_PERICENTER":94.0251,"MEAN_ANOMALY":266.1746,"EPHEMERIS_TYPE":0,"CLASSIFICATION_TYPE":"U","NORAD_CAT_ID":67395,"ELEMENT_SET_NO":999,"REV_AT_EPOCH":852,"BSTAR":0.00015125074,"MEAN_MOTION_DOT":1.33e-5,"MEAN_MOTION_DDOT":0},{"OBJECT_NAME":"COSMOS 2251 DEB","OBJECT_ID":"1993-036NV","EPOCH":"2026-03-09T17:41:32.285472","MEAN_MOTION":14.77390603,"ECCENTRICITY":0.00550482,"INCLINATION":73.9529,"RA_OF_ASC_NODE":311.9861,"ARG_OF_PERICENTER":334.2727,"MEAN_ANOMALY":81.7397,"EPHEMERIS_TYPE":0,"CLASSIFICATION_TYPE":"U","NORAD_CAT_ID":34323,"ELEMENT_SET_NO":999,"REV_AT_EPOCH":89723,"BSTAR":0.0017412955,"MEAN_MOTION_DOT":0.00012691,"MEAN_MOTION_DDOT":0}]
